GLOBALSTAR M035         
1 25851U 99037A   24335.56021066 -.00000054  00000+0  36295-3 0  9999
2 25851  51.9911 137.9206 0014026  25.9533   5.6713 11.04535481 74316
GLOBALSTAR M032         
1 25852U 99037B   24335.67601424 -.00000103  00000+0 -11502-2 0  9993
2 25852  51.9981 336.5545 0010543 194.6410 165.4086 11.19054776112618
GLOBALSTAR M051         
1 25853U 99037C   24335.83823347 -.00000046  00000+0  63080-3 0  9996
2 25853  51.9756 159.3834 0001067 150.4738 209.6133 11.42199555109740
GLOBALSTAR M030         
1 25854U 99037D   24335.31347030 -.00000054  00000+0  45426-3 0  9993
2 25854  51.9901 339.4007 0003910  52.1584 307.9587 11.55100428127067
GLOBALSTAR M048         
1 25872U 99041A   24335.50725517 -.00000082  00000+0 -32211-3 0  9999
2 25872  51.9367  87.5316 0013521 196.4168 264.0963 11.33852124102445
GLOBALSTAR M026         
1 25873U 99041B   24335.58274058 -.00000159  00000+0 -34954-2 0  9997
2 25873  52.0011 257.9184 0001116 320.1052 211.4349 11.06825977126496
GLOBALSTAR M043         
1 25874U 99041C   24335.53195719 -.00000021  00000+0  14080-2 0  9994
2 25874  51.9371 187.2046 0012811 338.2179  53.6729 11.25688285100502
GLOBALSTAR M028         
1 25875U 99041D   24335.70053408 -.00000074  00000+0  17112-3 0  9990
2 25875  51.9637  64.9119 0062993   0.8889 359.2074 12.50570887165377
